NORAD_CAT_ID,OBJECT_NAME,OBJECT_TYPE,EPOCH,MEAN_MOTION,ECCENTRICITY,INCLINATION,RA_OF_ASC_NODE,ARG_OF_PERICENTER,MEAN_ANOMALY,BSTAR,MEAN_MOTION_DOT,MEAN_MOTION_DDOT,TLE_LINE0,TLE_LINE1,TLE_LINE2,SEMIMAJOR_AXIS,PERIOD,APOGEE,PERIGEE,DECAYED
52987.0,STARLINK-4259,PAYLOAD,2023-06-01 04:55:37,15.08841645,0.00011,53.2182,329.3359,86.6534,273.4584,2.8892e-05,1.72e-06,0.0,0 STARLINK-4259,1 52987U 22076B   23152.20529282  .00000172  00000-0  28892-4 0  9994,2 52987  53.2182 329.3359 0001100  86.6534 273.4584 15.08841645 49853,6917.875,95.437,540.501,538.979,0.0
52987.0,STARLINK-4259,PAYLOAD,2023-06-01 14:27:56,15.08838124,0.000101,53.2173,327.5549,97.4193,262.6914,4.7998e-05,4.76e-06,0.0,0 STARLINK-4259,1 52987U 22076B   23152.60273283  .00000476  00000-0  47998-4 0  9990,2 52987  53.2173 327.5549 0001010  97.4193 262.6914 15.08838124 50380,6917.886,95.438,540.45,539.052,0.0
52987.0,STARLINK-4259,PAYLOAD,2023-06-02 11:07:57,15.08837776,0.0001383,53.2161,323.6907,83.0233,277.0916,9.6468e-05,1.248e-05,0.0,0 STARLINK-4259,1 52987U 22076B   23153.46385699  .00001248  00000-0  96468-4 0  9994,2 52987  53.2161 323.6907 0001383  83.0233 277.0916 15.08837776 50048,6917.887,95.438,540.709,538.795,0.0
52987.0,STARLINK-4259,PAYLOAD,2023-06-02 17:29:30,15.08834112,8.5e-05,53.2183,322.5,94.0471,266.0618,6.1106e-05,6.85e-06,0.0,0 STARLINK-4259,1 52987U 22076B   23153.72882059  .00000685  00000-0  61106-4 0  9990,2 52987  53.2183 322.5000 0000850  94.0471 266.0618 15.08834112 50552,6917.898,95.438,540.351,539.175,0.0
52987.0,STARLINK-4259,PAYLOAD,2023-06-03 10:58:44,15.0884021,9.64e-05,53.2183,319.2284,89.9751,270.1352,0.00013811,1.911e-05,0.0,0 STARLINK-4259,1 52987U 22076B   23154.45745714  .00001911  00000-0  13811-3 0  9999,2 52987  53.2183 319.2284 0000964  89.9751 270.1352 15.08840210 50196,6917.88,95.438,540.412,539.078,0.0
52987.0,STARLINK-4259,PAYLOAD,2023-06-03 17:20:16,15.08845518,9.93e-05,53.2181,318.039,89.8274,270.2832,0.0001566,2.206e-05,0.0,0 STARLINK-4259,1 52987U 22076B   23154.72241343  .00002206  00000-0  15660-3 0  9990,2 52987  53.2181 318.0390 0000993  89.8274 270.2832 15.08845518 50707,6917.864,95.437,540.415,539.042,0.0
52987.0,STARLINK-4259,PAYLOAD,2023-06-04 10:49:31,15.08837133,0.0001022,53.217,314.7682,82.6688,277.442,0.00013158,1.807e-05,0.0,0 STARLINK-4259,1 52987U 22076B   23155.45106050  .00001807  00000-0  13158-3 0  9992,2 52987  53.2170 314.7682 0001022  82.6688 277.4420 15.08837133 50814,6917.889,95.438,540.461,539.047,0.0
52987.0,STARLINK-4259,PAYLOAD,2023-06-04 14:00:17,15.08835945,9.82e-05,53.2179,314.1739,83.7817,276.3287,0.000123,1.67e-05,0.0,0 STARLINK-4259,1 52987U 22076B   23155.58354018  .00001670  00000-0  12300-3 0  9991,2 52987  53.2179 314.1739 0000982  83.7817 276.3287 15.08835945 50368,6917.893,95.438,540.437,539.078,0.0
52987.0,STARLINK-4259,PAYLOAD,2023-06-04 17:11:03,15.08841375,9.99e-05,53.218,313.5786,88.1275,271.9832,0.00012971,1.777e-05,0.0,0 STARLINK-4259,1 52987U 22076B   23155.71601653  .00001777  00000-0  12971-3 0  9998,2 52987  53.2180 313.5786 0000999  88.1275 271.9832 15.08841375 50383,6917.876,95.437,540.432,539.05,0.0
52987.0,STARLINK-4259,PAYLOAD,2023-06-05 13:51:04,15.08842742,9.03e-05,53.2179,309.7132,93.8455,266.2641,5.2993e-05,5.56e-06,0.0,0 STARLINK-4259,1 52987U 22076B   23156.57713641  .00000556  00000-0  52993-4 0  9997,2 52987  53.2179 309.7132 0000903  93.8455 266.2641 15.08842742 50510,6917.872,95.437,540.362,539.112,0.0
52987.0,STARLINK-4259,PAYLOAD,2023-06-05 17:01:50,15.08846892,9.16e-05,53.2179,309.118,89.1567,270.9531,5.2286e-05,5.45e-06,0.0,0 STARLINK-4259,1 52987U 22076B   23156.70961340  .00000545  00000-0  52286-4 0  9996,2 52987  53.2179 309.1180 0000916  89.1567 270.9531 15.08846892 51008,6917.859,95.437,540.358,539.091,0.0
52987.0,STARLINK-4259,PAYLOAD,2023-06-06 05:44:56,15.08833665,9.39e-05,53.2179,306.7394,82.4999,277.61,0.00012003,1.623e-05,0.0,0 STARLINK-4259,1 52987U 22076B   23157.23953934  .00001623  00000-0  12003-3 0  9995,2 52987  53.2179 306.7394 0000939  82.4999 277.6100 15.08833665 51086,6917.9,95.438,540.414,539.115,0.0
52987.0,STARLINK-4259,PAYLOAD,2023-06-06 12:06:29,15.08830778,0.0001087,53.2179,305.5505,101.588,258.5235,9.8781e-06,-1.31e-06,0.0,0 STARLINK-4259,1 52987U 22076B   23157.50450432 -.00000131  00000-0  98781-5 0  9993,2 52987  53.2179 305.5505 0001087 101.5880 258.5235 15.08830778 50655,6917.909,95.438,540.526,539.022,0.0
52987.0,STARLINK-4259,PAYLOAD,2023-06-06 16:52:38,15.08826392,0.000102,53.2193,304.6606,100.4369,259.6739,0.00020119,2.914e-05,0.0,0 STARLINK-4259,1 52987U 22076B   23157.70322188  .00002914  00000-0  20119-3 0  9999,2 52987  53.2193 304.6606 0001020 100.4369 259.6739 15.08826392 50681,6917.922,95.438,540.493,539.081,0.0
52987.0,STARLINK-4259,PAYLOAD,2023-06-07 08:46:30,15.08832909,9.59e-05,53.2176,301.6843,87.38,272.7301,-2.3532e-05,-6.62e-06,0.0,0 STARLINK-4259,1 52987U 22076B   23158.36562644 -.00000662  00000-0 -23532-4 0  9998,2 52987  53.2176 301.6843 0000959  87.3800 272.7301 15.08832909 51251,6917.902,95.438,540.43,539.104,0.0
52987.0,STARLINK-4259,PAYLOAD,2023-06-07 11:57:16,15.08835625,0.0001098,53.2174,301.0894,89.9305,270.1812,1.0892e-06,-2.7e-06,0.0,0 STARLINK-4259,1 52987U 22076B   23158.49810463 -.00000270  00000-0  10892-5 0  9997,2 52987  53.2174 301.0894 0001098  89.9305 270.1812 15.08835625 50809,6917.894,95.438,540.518,538.999,0.0
52987.0,STARLINK-4259,PAYLOAD,2023-06-07 19:54:12,15.08825253,9.5e-05,53.2178,299.6026,97.2856,262.8244,-8.6535e-05,-1.664e-05,0.0,0 STARLINK-4259,1 52987U 22076B   23158.82931572 -.00001664  00000-0 -86535-4 0  9994,2 52987  53.2178 299.6026 0000950  97.2856 262.8244 15.08825253 50859,6917.925,95.438,540.448,539.133,0.0
52987.0,STARLINK-4259,PAYLOAD,2023-06-08 02:15:45,15.08825287,0.0001198,53.2166,298.4152,109.471,250.6412,-0.0001017,-1.905e-05,0.0,0 STARLINK-4259,1 52987U 22076B   23159.09427792 -.00001905  00000-0 -10170-3 0  9997,2 52987  53.2166 298.4152 0001198 109.4710 250.6412 15.08825287 51369,6917.925,95.438,540.619,538.962,0.0
52987.0,STARLINK-4259,PAYLOAD,2023-06-08 13:23:27,15.08831712,0.0001103,53.2178,296.3322,95.2414,264.8704,0.00013192,1.812e-05,0.0,0 STARLINK-4259,1 52987U 22076B   23159.55795213  .00001812  00000-0  13192-3 0  9996,2 52987  53.2178 296.3322 0001103  95.2414 264.8704 15.08831712 51436,6917.906,95.438,540.534,539.008,0.0
52987.0,STARLINK-4259,PAYLOAD,2023-06-08 21:20:22,15.0884547,0.0001099,53.2178,294.845,92.018,268.0938,0.00013702,1.894e-05,0.0,0 STARLINK-4259,1 52987U 22076B   23159.88914465  .00001894  00000-0  13702-3 0  9991,2 52987  53.2178 294.8450 0001099  92.0180 268.0938 15.08845470 51486,6917.864,95.437,540.489,538.968,0.0
52987.0,STARLINK-4259,PAYLOAD,2023-06-09 08:28:04,15.08837473,0.0001094,53.2178,292.7659,80.6478,279.4638,0.00014485,2.018e-05,0.0,0 STARLINK-4259,1 52987U 22076B   23160.35283142  .00002018  00000-0  14485-3 0  9994,2 52987  53.2178 292.7659 0001094  80.6478 279.4638 15.08837473 51557,6917.888,95.438,540.51,538.996,0.0
52987.0,STARLINK-4259,PAYLOAD,2023-06-09 14:49:37,15.08841631,9.04e-05,53.2179,291.5762,92.3155,267.7941,9.6826e-05,1.254e-05,0.0,0 STARLINK-4259,1 52987U 22076B   23160.61778982  .00001254  00000-0  96826-4 0  9995,2 52987  53.2179 291.5762 0000904  92.3155 267.7941 15.08841631 51122,6917.875,95.437,540.366,539.115,0.0
52987.0,STARLINK-4259,PAYLOAD,2023-06-09 16:24:59,15.08845859,0.000104,53.2176,291.2779,96.6415,263.4696,0.0001331,1.831e-05,0.0,0 STARLINK-4259,1 52987U 22076B   23160.68402615  .00001831  00000-0  13310-3 0  9996,2 52987  53.2176 291.2779 0001040  96.6415 263.4696 15.08845859 51139,6917.862,95.437,540.447,539.008,0.0
52987.0,STARLINK-4259,PAYLOAD,2023-06-10 14:40:23,15.08845663,9.82e-05,53.2174,287.1143,83.8776,276.2328,0.00013737,1.899e-05,0.0,0 STARLINK-4259,1 52987U 22076B   23161.61138713  .00001899  00000-0  13737-3 0  9992,2 52987  53.2174 287.1143 0000982  83.8776 276.2328 15.08845663 51270,6917.863,95.437,540.407,539.049,0.0
52987.0,STARLINK-4259,PAYLOAD,2023-06-11 14:31:10,15.0885188,9.54e-05,53.2177,282.6528,86.1647,273.9454,3.0093e-05,1.91e-06,0.0,0 STARLINK-4259,1 52987U 22076B   23162.60498082  .00000191  00000-0  30093-4 0  9999,2 52987  53.2177 282.6528 0000954  86.1647 273.9454 15.08851880 51421,6917.844,95.437,540.369,539.049,0.0
52987.0,STARLINK-4259,PAYLOAD,2023-06-11 17:41:56,15.08854478,0.0001179,53.2177,282.0576,89.6601,270.4527,5.1843e-05,5.38e-06,0.0,0 STARLINK-4259,1 52987U 22076B   23162.73745804  .00000538  00000-0  51843-4 0  9991,2 52987  53.2177 282.0576 0001179  89.6601 270.4527 15.08854478 51447,6917.836,95.437,540.517,538.886,0.0
52987.0,STARLINK-4259,PAYLOAD,2023-06-12 08:00:25,15.088398,0.0001117,53.2177,279.3792,96.0518,264.0601,6.8644e-05,8.05e-06,0.0,0 STARLINK-4259,1 52987U 22076B   23163.33362381  .00000805  00000-0  68644-4 0  9997,2 52987  53.2177 279.3792 0001117  96.0518 264.0601 15.08839800 52004,6917.881,95.438,540.519,538.973,0.0
52987.0,STARLINK-4259,PAYLOAD,2023-06-12 14:21:57,15.08846009,0.0001109,53.2172,278.1935,81.178,278.9338,5.132e-05,5.29e-06,0.0,0 STARLINK-4259,1 52987U 22076B   23163.59858023  .00000529  00000-0  51320-4 0  9994,2 52987  53.2172 278.1935 0001109  81.1780 278.9338 15.08846009 51573,6917.862,95.437,540.494,538.96,0.0
52987.0,STARLINK-4259,PAYLOAD,2023-06-13 07:51:12,15.08835041,0.000111,53.2175,274.9224,88.2985,271.8134,-6.6165e-06,-3.93e-06,0.0,0 STARLINK-4259,1 52987U 22076B   23164.32722757 -.00000393  00000-0 -66165-5 0  9995,2 52987  53.2175 274.9224 0001110  88.2985 271.8134 15.08835041 52153,6917.896,95.438,540.528,538.993,0.0
52987.0,STARLINK-4259,PAYLOAD,2023-06-14 09:17:22,15.08838452,0.0001136,53.2178,270.1644,88.6314,271.4808,2.6171e-05,1.29e-06,0.0,0 STARLINK-4259,1 52987U 22076B   23165.38706632  .00000129  00000-0  26171-4 0  9993,2 52987  53.2178 270.1644 0001136  88.6314 271.4808 15.08838452 52319,6917.885,95.438,540.536,538.964,0.0
